[{"OBJECT_NAME":"FLOCK 4BE-7","OBJECT_ID":"2024-149P","EPOCH":"2026-03-05T15:40:47.872704","MEAN_MOTION":15.36109334,"ECCENTRICITY":0.0002101,"INCLINATION":97.3811,"RA_OF_ASC_NODE":147.1581,"ARG_OF_PERICENTER":247.763,"MEAN_ANOMALY":112.3391,"EPHEMERIS_TYPE":0,"CLASSIFICATION_TYPE":"U","NORAD_CAT_ID":60481,"ELEMENT_SET_NO":999,"REV_AT_EPOCH":8633,"BSTAR":0.00053847,"MEAN_MOTION_DOT":0.00018885,"MEAN_MOTION_DDOT":0},{"OBJECT_NAME":"FLOCK 4BE-16","OBJECT_ID":"2024-149R","EPOCH":"2026-03-05T16:09:57.363840","MEAN_MOTION":15.67593107,"ECCENTRICITY":0.0006658,"INCLINATION":97.3727,"RA_OF_ASC_NODE":150.0673,"ARG_OF_PERICENTER":241.1299,"MEAN_ANOMALY":118.9294,"EPHEMERIS_TYPE":0,"CLASSIFICATION_TYPE":"U","NORAD_CAT_ID":60483,"ELEMENT_SET_NO":999,"REV_AT_EPOCH":8653,"BSTAR":0.0016734,"MEAN_MOTION_DOT":0.00185826,"MEAN_MOTION_DDOT":0},{"OBJECT_NAME":"FLOCK 4BE-26","OBJECT_ID":"2024-149S","EPOCH":"2026-03-05T05:15:05.931360","MEAN_MOTION":15.43297936,"ECCENTRICITY":0.0005903,"INCLINATION":97.3771,"RA_OF_ASC_NODE":147.0096,"ARG_OF_PERICENTER":253.617,"MEAN_ANOMALY":106.4429,"EPHEMERIS_TYPE":0,"CLASSIFICATION_TYPE":"U","NORAD_CAT_ID":60484,"ELEMENT_SET_NO":999,"REV_AT_EPOCH":8630,"BSTAR":0.002171,"MEAN_MOTION_DOT":0.00097692,"MEAN_MOTION_DDOT":0},{"OBJECT_NAME":"TOMORROW-S2","OBJECT_ID":"2024-149T","EPOCH":"2026-03-05T16:46:04.776096","MEAN_MOTION":15.30598075,"ECCENTRICITY":0.0001445,"INCLINATION":97.3869,"RA_OF_ASC_NODE":146.0045,"ARG_OF_PERICENTER":262.7623,"MEAN_ANOMALY":97.3454,"EPHEMERIS_TYPE":0,"CLASSIFICATION_TYPE":"U","NORAD_CAT_ID":60485,"ELEMENT_SET_NO":999,"REV_AT_EPOCH":8624,"BSTAR":0.00034359,"MEAN_MOTION_DOT":0.00010091,"MEAN_MOTION_DDOT":0},{"OBJECT_NAME":"FLOCK 4BE-36","OBJECT_ID":"2024-149U","EPOCH":"2026-03-05T16:12:43.141248","MEAN_MOTION":15.38947845,"ECCENTRICITY":0.0002798,"INCLINATION":97.3791,"RA_OF_ASC_NODE":148.1228,"ARG_OF_PERICENTER":271.5745,"MEAN_ANOMALY":88.518,"EPHEMERIS_TYPE":0,"CLASSIFICATION_TYPE":"U","NORAD_CAT_ID":60486,"ELEMENT_SET_NO":999,"REV_AT_EPOCH":8641,"BSTAR":0.0006468,"MEAN_MOTION_DOT":0.00024903,"MEAN_MOTION_DDOT":0},{"OBJECT_NAME":"FLOCK 4BE-25","OBJECT_ID":"2024-149V","EPOCH":"2026-03-05T15:59:46.331808","MEAN_MOTION":15.35841976,"ECCENTRICITY":0.0001298,"INCLINATION":97.3846,"RA_OF_ASC_NODE":147.3206,"ARG_OF_PERICENTER":236.7487,"MEAN_ANOMALY":123.3632,"EPHEMERIS_TYPE":0,"CLASSIFICATION_TYPE":"U","NORAD_CAT_ID":60487,"ELEMENT_SET_NO":999,"REV_AT_EPOCH":8633,"BSTAR":0.00053432,"MEAN_MOTION_DOT":0.00018577,"MEAN_MOTION_DDOT":0},{"OBJECT_NAME":"FLOCK 4BE-31","OBJECT_ID":"2024-149W","EPOCH":"2026-03-05T17:04:34.159008","MEAN_MOTION":15.39733608,"ECCENTRICITY":0.0001753,"INCLINATION":97.3846,"RA_OF_ASC_NODE":148.7741,"ARG_OF_PERICENTER":264.0349,"MEAN_ANOMALY":96.0697,"EPHEMERIS_TYPE":0,"CLASSIFICATION_TYPE":"U","NORAD_CAT_ID":60488,"ELEMENT_SET_NO":999,"REV_AT_EPOCH":8643,"BSTAR":0.00069294,"MEAN_MOTION_DOT":0.00027387,"MEAN_MOTION_DDOT":0},{"OBJECT_NAME":"FLOCK 4BE-20","OBJECT_ID":"2024-149X","EPOCH":"2026-03-05T16:59:31.873056","MEAN_MOTION":15.35124698,"ECCENTRICITY":0.0002474,"INCLINATION":97.3753,"RA_OF_ASC_NODE":146.5007,"ARG_OF_PERICENTER":263.9759,"MEAN_ANOMALY":96.1202,"EPHEMERIS_TYPE":0,"CLASSIFICATION_TYPE":"U","NORAD_CAT_ID":60489,"ELEMENT_SET_NO":999,"REV_AT_EPOCH":8632,"BSTAR":0.00052428,"MEAN_MOTION_DOT":0.00017814,"MEAN_MOTION_DDOT":0},{"OBJECT_NAME":"FLOCK 4BE-23","OBJECT_ID":"2024-149Y","EPOCH":"2026-03-05T05:13:02.023392","MEAN_MOTION":15.34747825,"ECCENTRICITY":0.000209,"INCLINATION":97.3833,"RA_OF_ASC_NODE":146.3289,"ARG_OF_PERICENTER":278.3991,"MEAN_ANOMALY":81.7015,"EPHEMERIS_TYPE":0,"CLASSIFICATION_TYPE":"U","NORAD_CAT_ID":60490,"ELEMENT_SET_NO":999,"REV_AT_EPOCH":8623,"BSTAR":0.00052194,"MEAN_MOTION_DOT":0.00017521,"MEAN_MOTION_DDOT":0},{"OBJECT_NAME":"FLOCK 4BE-15","OBJECT_ID":"2024-149Z","EPOCH":"2026-03-05T16:21:23.163840","MEAN_MOTION":15.39642756,"ECCENTRICITY":0.0002953,"INCLINATION":97.3769,"RA_OF_ASC_NODE":147.82,"ARG_OF_PERICENTER":323.1547,"MEAN_ANOMALY":36.9496,"EPHEMERIS_TYPE":0,"CLASSIFICATION_TYPE":"U","NORAD_CAT_ID":60491,"ELEMENT_SET_NO":999,"REV_AT_EPOCH":8640,"BSTAR":0.0021419,"MEAN_MOTION_DOT":0.00085219,"MEAN_MOTION_DDOT":0},{"OBJECT_NAME":"FLOCK 4BE-17","OBJECT_ID":"2024-149AA","EPOCH":"2026-03-05T12:38:37.867488","MEAN_MOTION":15.36469692,"ECCENTRICITY":0.0002121,"INCLINATION":97.3824,"RA_OF_ASC_NODE":147.3076,"ARG_OF_PERICENTER":253.9264,"MEAN_ANOMALY":106.1747,"EPHEMERIS_TYPE":0,"CLASSIFICATION_TYPE":"U","NORAD_CAT_ID":60492,"ELEMENT_SET_NO":999,"REV_AT_EPOCH":8632,"BSTAR":0.00057004,"MEAN_MOTION_DOT":0.00020233,"MEAN_MOTION_DDOT":0},{"OBJECT_NAME":"NUSAT-50 (NANCY ROMAN)","OBJECT_ID":"2024-149AB","EPOCH":"2026-03-05T11:38:05.015328","MEAN_MOTION":15.29586788,"ECCENTRICITY":0.0002274,"INCLINATION":97.3821,"RA_OF_ASC_NODE":146.4804,"ARG_OF_PERICENTER":260.5884,"MEAN_ANOMALY":99.51,"EPHEMERIS_TYPE":0,"CLASSIFICATION_TYPE":"U","NORAD_CAT_ID":60493,"ELEMENT_SET_NO":999,"REV_AT_EPOCH":8627,"BSTAR":0.00048039,"MEAN_MOTION_DOT":0.0001371,"MEAN_MOTION_DDOT":0},{"OBJECT_NAME":"FLOCK 4BE-22","OBJECT_ID":"2024-149AC","EPOCH":"2026-03-05T15:50:25.630368","MEAN_MOTION":15.37535361,"ECCENTRICITY":0.000274,"INCLINATION":97.3783,"RA_OF_ASC_NODE":147.4892,"ARG_OF_PERICENTER":278.2553,"MEAN_ANOMALY":81.8381,"EPHEMERIS_TYPE":0,"CLASSIFICATION_TYPE":"U","NORAD_CAT_ID":60494,"ELEMENT_SET_NO":999,"REV_AT_EPOCH":8637,"BSTAR":0.00061579,"MEAN_MOTION_DOT":0.00022635,"MEAN_MOTION_DDOT":0},{"OBJECT_NAME":"FLOCK 4BE-34","OBJECT_ID":"2024-149AD","EPOCH":"2026-03-05T16:23:11.405760","MEAN_MOTION":15.37812996,"ECCENTRICITY":0.0002297,"INCLINATION":97.3826,"RA_OF_ASC_NODE":148.2569,"ARG_OF_PERICENTER":280.6941,"MEAN_ANOMALY":79.4045,"EPHEMERIS_TYPE":0,"CLASSIFICATION_TYPE":"U","NORAD_CAT_ID":60495,"ELEMENT_SET_NO":999,"REV_AT_EPOCH":8640,"BSTAR":0.00051565,"MEAN_MOTION_DOT":0.00019102,"MEAN_MOTION_DDOT":0},{"OBJECT_NAME":"TYCHE","OBJECT_ID":"2024-149AE","EPOCH":"2026-03-05T17:12:38.238336","MEAN_MOTION":15.25830968,"ECCENTRICITY":0.0002656,"INCLINATION":97.3813,"RA_OF_ASC_NODE":143.9043,"ARG_OF_PERICENTER":255.5342,"MEAN_ANOMALY":104.5602,"EPHEMERIS_TYPE":0,"CLASSIFICATION_TYPE":"U","NORAD_CAT_ID":60496,"ELEMENT_SET_NO":999,"REV_AT_EPOCH":8612,"BSTAR":0.00026186,"MEAN_MOTION_DOT":6.628e-5,"MEAN_MOTION_DDOT":0},{"OBJECT_NAME":"FLOCK 4BE-32","OBJECT_ID":"2024-149AF","EPOCH":"2026-03-05T16:51:01.770048","MEAN_MOTION":15.38268536,"ECCENTRICITY":0.0002654,"INCLINATION":97.377,"RA_OF_ASC_NODE":147.7828,"ARG_OF_PERICENTER":279.4993,"MEAN_ANOMALY":80.5952,"EPHEMERIS_TYPE":0,"CLASSIFICATION_TYPE":"U","NORAD_CAT_ID":60497,"ELEMENT_SET_NO":999,"REV_AT_EPOCH":8640,"BSTAR":0.00062934,"MEAN_MOTION_DOT":0.00023694,"MEAN_MOTION_DDOT":0}]
