FLOCK 4BE-7             
1 60481U 24149P   26064.65333186  .00018885  00000+0  53847-3 0  9991
2 60481  97.3811 147.1581 0002101 247.7630 112.3391 15.36109334 86335
FLOCK 4BE-16            
1 60483U 24149R   26064.67358060  .00185826  00000+0  16734-2 0  9996
2 60483  97.3727 150.0673 0006658 241.1299 118.9294 15.67593107 86533
FLOCK 4BE-26            
1 60484U 24149S   26064.21881865  .00097692  00000+0  21710-2 0  9994
2 60484  97.3771 147.0096 0005903 253.6170 106.4429 15.43297936 86308
TOMORROW-S2             
1 60485U 24149T   26064.69866639  .00010091  00000+0  34359-3 0  9991
2 60485  97.3869 146.0045 0001445 262.7623  97.3454 15.30598075 86244
FLOCK 4BE-36            
1 60486U 24149U   26064.67549932  .00024903  00000+0  64680-3 0  9991
2 60486  97.3791 148.1228 0002798 271.5745  88.5180 15.38947845 86418
FLOCK 4BE-25            
1 60487U 24149V   26064.66650847  .00018577  00000+0  53432-3 0  9992
2 60487  97.3846 147.3206 0001298 236.7487 123.3632 15.35841976 86333
FLOCK 4BE-31            
1 60488U 24149W   26064.71150647  .00027387  00000+0  69294-3 0  9994
2 60488  97.3846 148.7741 0001753 264.0349  96.0697 15.39733608 86434
FLOCK 4BE-20            
1 60489U 24149X   26064.70800779  .00017814  00000+0  52428-3 0  9997
2 60489  97.3753 146.5007 0002474 263.9759  96.1202 15.35124698 86327
FLOCK 4BE-23            
1 60490U 24149Y   26064.21738453  .00017521  00000+0  52194-3 0  9999
2 60490  97.3833 146.3289 0002090 278.3991  81.7015 15.34747825 86234
FLOCK 4BE-15            
1 60491U 24149Z   26064.68151810  .00085219  00000+0  21419-2 0  9991
2 60491  97.3769 147.8200 0002953 323.1547  36.9496 15.39642756 86402
FLOCK 4BE-17            
1 60492U 24149AA  26064.52682717  .00020233  00000+0  57004-3 0  9995
2 60492  97.3824 147.3076 0002121 253.9264 106.1747 15.36469692 86327
NUSAT-50 (NANCY ROMAN)  
1 60493U 24149AB  26064.48478027  .00013710  00000+0  48039-3 0  9998
2 60493  97.3821 146.4804 0002274 260.5884  99.5100 15.29586788 86275
FLOCK 4BE-22            
1 60494U 24149AC  26064.66001887  .00022635  00000+0  61579-3 0  9995
2 60494  97.3783 147.4892 0002740 278.2553  81.8381 15.37535361 86374
FLOCK 4BE-34            
1 60495U 24149AD  26064.68277090  .00019102  00000+0  51565-3 0  9998
2 60495  97.3826 148.2569 0002297 280.6941  79.4045 15.37812996 86404
TYCHE                   
1 60496U 24149AE  26064.71710924  .00006628  00000+0  26186-3 0  9991
2 60496  97.3813 143.9043 0002656 255.5342 104.5602 15.25830968 86129
FLOCK 4BE-32            
1 60497U 24149AF  26064.70210382  .00023694  00000+0  62934-3 0  9997
2 60497  97.3770 147.7828 0002654 279.4993  80.5952 15.38268536 86402
